FALCONSAT-10            
1 58291U 23174AM  26068.70247784  .00006748  00000+0  25969-3 0  9991
2 58291  97.3865 145.7938 0008932 169.5942 190.5483 15.26670596129582
STARLINK-35836          
1 66571U 25268Q   26068.15612101  .00040369  00000+0  14684-2 0  9993
2 66571  43.0058 350.4695 0001791 280.5587  79.5063 15.27581175 17877
